{
 "generated_at": "2026-07-21T07:32:50Z",
 "sources": [
  {
   "name": "CelesTrak",
   "url": "https://celestrak.org/NORAD/elements/",
   "license": "frei verfügbar; Attribution. Ursprünglich USSPACECOM/Space-Track."
  },
  {
   "name": "GCAT (J. McDowell, planet4589.org)",
   "url": "https://planet4589.org/space/gcat/",
   "license": "CC-BY 4.0"
  }
 ],
 "satellites": [
  {
   "norad": 32376,
   "name": "COSMO-SKYMED 2",
   "intl": "2007-059A",
   "group": "resource",
   "gcat": {
    "class": "D",
    "category": "IMG-R",
    "owner": "ASI",
    "state": "I"
   },
   "omm": {
    "OBJECT_NAME": "COSMO-SKYMED 2",
    "OBJECT_ID": "2007-059A",
    "EPOCH": "2026-07-20T21:59:30.245856",
    "MEAN_MOTION": 14.82153355,
    "ECCENTRICITY": 0.00014683,
    "INCLINATION": 97.8897,
    "RA_OF_ASC_NODE": 25.0267,
    "ARG_OF_PERICENTER": 93.9065,
    "MEAN_ANOMALY": 266.2316,
    "EPHEMERIS_TYPE": 0,
    "CLASSIFICATION_TYPE": "U",
    "NORAD_CAT_ID": 32376,
    "ELEMENT_SET_NO": 999,
    "REV_AT_EPOCH": 700,
    "BSTAR": 0.00003386696,
    "MEAN_MOTION_DOT": 0.00000217,
    "MEAN_MOTION_DDOT": 0
   }
  },
  {
   "norad": 33412,
   "name": "COSMO-SKYMED 3",
   "intl": "2008-054A",
   "group": "resource",
   "gcat": {
    "class": null,
    "category": null,
    "owner": null,
    "state": null
   },
   "omm": {
    "OBJECT_NAME": "COSMO-SKYMED 3",
    "OBJECT_ID": "2008-054A",
    "EPOCH": "2026-07-20T22:31:58.926144",
    "MEAN_MOTION": 15.07139545,
    "ECCENTRICITY": 0.00163619,
    "INCLINATION": 97.8252,
    "RA_OF_ASC_NODE": 61.067,
    "ARG_OF_PERICENTER": 146.8179,
    "MEAN_ANOMALY": 213.4077,
    "EPHEMERIS_TYPE": 0,
    "CLASSIFICATION_TYPE": "U",
    "NORAD_CAT_ID": 33412,
    "ELEMENT_SET_NO": 999,
    "REV_AT_EPOCH": 96202,
    "BSTAR": 0.00014286053,
    "MEAN_MOTION_DOT": 0.00002087,
    "MEAN_MOTION_DDOT": 0
   }
  },
  {
   "norad": 37216,
   "name": "COSMO-SKYMED 4",
   "intl": "2010-060A",
   "group": "resource",
   "gcat": {
    "class": "D",
    "category": "IMG-R",
    "owner": "ASI",
    "state": "I"
   },
   "omm": {
    "OBJECT_NAME": "COSMO-SKYMED 4",
    "OBJECT_ID": "2010-060A",
    "EPOCH": "2026-07-20T22:17:44.981376",
    "MEAN_MOTION": 14.82151284,
    "ECCENTRICITY": 0.00015121,
    "INCLINATION": 97.8901,
    "RA_OF_ASC_NODE": 25.0408,
    "ARG_OF_PERICENTER": 86.9803,
    "MEAN_ANOMALY": 273.1583,
    "EPHEMERIS_TYPE": 0,
    "CLASSIFICATION_TYPE": "U",
    "NORAD_CAT_ID": 37216,
    "ELEMENT_SET_NO": 999,
    "REV_AT_EPOCH": 84956,
    "BSTAR": 0.000056619049,
    "MEAN_MOTION_DOT": 0.00000398,
    "MEAN_MOTION_DDOT": 0
   }
  },
  {
   "norad": 44873,
   "name": "CSG-1",
   "intl": "2019-092A",
   "group": "resource",
   "gcat": {
    "class": "D",
    "category": "IMG-R",
    "owner": "MDDI/ASI",
    "state": "I"
   },
   "omm": {
    "OBJECT_NAME": "CSG-1",
    "OBJECT_ID": "2019-092A",
    "EPOCH": "2026-07-20T22:35:57.998400",
    "MEAN_MOTION": 14.82159597,
    "ECCENTRICITY": 0.00014618,
    "INCLINATION": 97.89,
    "RA_OF_ASC_NODE": 25.0571,
    "ARG_OF_PERICENTER": 94.805,
    "MEAN_ANOMALY": 265.333,
    "EPHEMERIS_TYPE": 0,
    "CLASSIFICATION_TYPE": "U",
    "NORAD_CAT_ID": 44873,
    "ELEMENT_SET_NO": 999,
    "REV_AT_EPOCH": 35647,
    "BSTAR": 0.00003195933,
    "MEAN_MOTION_DOT": 0.00000202,
    "MEAN_MOTION_DDOT": 0
   }
  },
  {
   "norad": 51444,
   "name": "CSG-2",
   "intl": "2022-008A",
   "group": "resource",
   "gcat": {
    "class": "D",
    "category": "IMG-R",
    "owner": "MDDI/ASI",
    "state": "I"
   },
   "omm": {
    "OBJECT_NAME": "CSG-2",
    "OBJECT_ID": "2022-008A",
    "EPOCH": "2026-07-19T08:31:21.408096",
    "MEAN_MOTION": 14.82176378,
    "ECCENTRICITY": 0.00016613,
    "INCLINATION": 97.8896,
    "RA_OF_ASC_NODE": 23.4868,
    "ARG_OF_PERICENTER": 89.8481,
    "MEAN_ANOMALY": 270.2922,
    "EPHEMERIS_TYPE": 0,
    "CLASSIFICATION_TYPE": "U",
    "NORAD_CAT_ID": 51444,
    "ELEMENT_SET_NO": 999,
    "REV_AT_EPOCH": 24135,
    "BSTAR": 0.000045603774,
    "MEAN_MOTION_DOT": 0.00000311,
    "MEAN_MOTION_DDOT": 0
   }
  },
  {
   "norad": 67304,
   "name": "CSG-3",
   "intl": "2026-001A",
   "group": "resource",
   "gcat": {
    "class": "D",
    "category": "IMG-R",
    "owner": "MDDI/ASI",
    "state": "I"
   },
   "omm": {
    "OBJECT_NAME": "CSG-3",
    "OBJECT_ID": "2026-001A",
    "EPOCH": "2026-07-20T09:56:29.192064",
    "MEAN_MOTION": 14.82165425,
    "ECCENTRICITY": 0.00014691,
    "INCLINATION": 97.8898,
    "RA_OF_ASC_NODE": 24.5366,
    "ARG_OF_PERICENTER": 93.0499,
    "MEAN_ANOMALY": 267.0882,
    "EPHEMERIS_TYPE": 0,
    "CLASSIFICATION_TYPE": "U",
    "NORAD_CAT_ID": 67304,
    "ELEMENT_SET_NO": 999,
    "REV_AT_EPOCH": 2938,
    "BSTAR": 0.00002542272,
    "MEAN_MOTION_DOT": 0.0000015,
    "MEAN_MOTION_DDOT": 0
   }
  },
  {
   "norad": 41887,
   "name": "CYGFM01",
   "intl": "2016-078D",
   "group": "weather",
   "gcat": {
    "class": "C",
    "category": "EOSCI",
    "owner": "LARCN/SWRIB",
    "state": "US"
   },
   "omm": {
    "OBJECT_NAME": "CYGFM01",
    "OBJECT_ID": "2016-078D",
    "EPOCH": "2026-07-20T19:20:48.075936",
    "MEAN_MOTION": 15.58760852,
    "ECCENTRICITY": 0.000515,
    "INCLINATION": 34.9404,
    "RA_OF_ASC_NODE": 38.5009,
    "ARG_OF_PERICENTER": 91.0871,
    "MEAN_ANOMALY": 269.0444,
    "EPHEMERIS_TYPE": 0,
    "CLASSIFICATION_TYPE": "U",
    "NORAD_CAT_ID": 41887,
    "ELEMENT_SET_NO": 999,
    "REV_AT_EPOCH": 53395,
    "BSTAR": 0.0002494162,
    "MEAN_MOTION_DOT": 0.00019896,
    "MEAN_MOTION_DDOT": 0
   }
  },
  {
   "norad": 41886,
   "name": "CYGFM02",
   "intl": "2016-078C",
   "group": "weather",
   "gcat": {
    "class": "C",
    "category": "EOSCI",
    "owner": "LARCN/SWRIB",
    "state": "US"
   },
   "omm": {
    "OBJECT_NAME": "CYGFM02",
    "OBJECT_ID": "2016-078C",
    "EPOCH": "2026-07-20T16:34:26.293440",
    "MEAN_MOTION": 15.66648843,
    "ECCENTRICITY": 0.00050318,
    "INCLINATION": 34.9411,
    "RA_OF_ASC_NODE": 357.9232,
    "ARG_OF_PERICENTER": 150.2375,
    "MEAN_ANOMALY": 209.8639,
    "EPHEMERIS_TYPE": 0,
    "CLASSIFICATION_TYPE": "U",
    "NORAD_CAT_ID": 41886,
    "ELEMENT_SET_NO": 999,
    "REV_AT_EPOCH": 53442,
    "BSTAR": 0.00026335175,
    "MEAN_MOTION_DOT": 0.00028676,
    "MEAN_MOTION_DDOT": 0
   }
  },
  {
   "norad": 41891,
   "name": "CYGFM03",
   "intl": "2016-078H",
   "group": "weather",
   "gcat": {
    "class": "C",
    "category": "EOSCI",
    "owner": "LARCN/SWRIB",
    "state": "US"
   },
   "omm": {
    "OBJECT_NAME": "CYGFM03",
    "OBJECT_ID": "2016-078H",
    "EPOCH": "2026-07-20T16:44:19.953888",
    "MEAN_MOTION": 15.61770161,
    "ECCENTRICITY": 0.00043453,
    "INCLINATION": 34.941,
    "RA_OF_ASC_NODE": 8.1183,
    "ARG_OF_PERICENTER": 130.9389,
    "MEAN_ANOMALY": 229.1713,
    "EPHEMERIS_TYPE": 0,
    "CLASSIFICATION_TYPE": "U",
    "NORAD_CAT_ID": 41891,
    "ELEMENT_SET_NO": 999,
    "REV_AT_EPOCH": 53421,
    "BSTAR": 0.00024108871,
    "MEAN_MOTION_DOT": 0.00021593,
    "MEAN_MOTION_DDOT": 0
   }
  },
  {
   "norad": 41885,
   "name": "CYGFM04",
   "intl": "2016-078B",
   "group": "weather",
   "gcat": {
    "class": "C",
    "category": "EOSCI",
    "owner": "LARCN/SWRIB",
    "state": "US"
   },
   "omm": {
    "OBJECT_NAME": "CYGFM04",
    "OBJECT_ID": "2016-078B",
    "EPOCH": "2026-07-20T16:39:11.507616",
    "MEAN_MOTION": 15.63317465,
    "ECCENTRICITY": 0.00042771,
    "INCLINATION": 34.9331,
    "RA_OF_ASC_NODE": 4.4017,
    "ARG_OF_PERICENTER": 149.0942,
    "MEAN_ANOMALY": 211.0036,
    "EPHEMERIS_TYPE": 0,
    "CLASSIFICATION_TYPE": "U",
    "NORAD_CAT_ID": 41885,
    "ELEMENT_SET_NO": 999,
    "REV_AT_EPOCH": 53424,
    "BSTAR": 0.0002449473,
    "MEAN_MOTION_DOT": 0.00023318,
    "MEAN_MOTION_DDOT": 0
   }
  }
 ]
}
